STARLINK-31471          
1 59568U 24076E   26068.16231798 -.00001762  00000+0 -54536-4 0  9995
2 59568  43.0065  11.8378 0001016 285.9523  74.1216 15.27566798106333
FLOCK 4G-10             
1 62670U 25009BP  26068.70827885  .00013952  00000+0  52624-3 0  9995
2 62670  97.3967 150.5883 0003469 341.4844  18.6269 15.27155944121340
